NORAD_CAT_ID,OBJECT_NAME,OBJECT_TYPE,EPOCH,MEAN_MOTION,ECCENTRICITY,INCLINATION,RA_OF_ASC_NODE,ARG_OF_PERICENTER,MEAN_ANOMALY,BSTAR,MEAN_MOTION_DOT,MEAN_MOTION_DDOT,TLE_LINE0,TLE_LINE1,TLE_LINE2,SEMIMAJOR_AXIS,PERIOD,APOGEE,PERIGEE,DECAYED
53713.0,STARLINK-4698,PAYLOAD,2022-09-12 14:00:01,15.79005336,9.33e-05,53.2172,236.1042,86.1675,258.8112,-0.0074319999999999,-0.01196878,0.0,0 STARLINK-4698,1 53713U 22107P   22255.58334491 -.01196878  00000-0 -74320-2 0  9994,2 53713  53.2172 236.1042 0000933  86.1675 258.8112 15.79005336  1307,6711.395,91.197,333.886,332.6330000000001,0.0
53713.0,STARLINK-4698,PAYLOAD,2022-09-13 06:00:00,15.77268913,0.0001246,53.2173,232.7816,71.8657,102.8086,-0.0080264,-0.01195079,0.0,0 STARLINK-4698,1 53713U 22107P   22256.25001157 -.01195079  00000-0 -80264-2 0  9995,2 53713  53.2173 232.7816 0001246  71.8657 102.8086 15.77268913  1407,6716.319,91.297,339.021,337.348,0.0
53713.0,STARLINK-4698,PAYLOAD,2022-09-13 14:00:01,15.76402353,0.000107,53.2174,231.1223,79.1865,188.7717,-0.0083623,-0.011973,0.0,0 STARLINK-4698,1 53713U 22107P   22256.58334491 -.01197300  00000-0 -83623-2 0  9992,2 53713  53.2174 231.1223 0001070  79.1865 188.7717 15.76402353  1300,6718.781,91.347,341.3640000000001,339.927,0.0
53713.0,STARLINK-4698,PAYLOAD,2022-09-13 20:00:01,15.75748582,0.000111,53.2173,229.8786,83.5725,163.6656,-0.0085697999999999,-0.01192481,0.0,0 STARLINK-4698,1 53713U 22107P   22256.83334491 -.01192481  00000-0 -85698-2 0  9999,2 53713  53.2173 229.8786 0001110  83.5725 163.6656 15.75748582  1496,6720.639,91.385,343.25,341.7580000000001,0.0
53713.0,STARLINK-4698,PAYLOAD,2022-09-13 22:00:00,15.75530379,0.0001032999999999,53.2177,229.4648,110.9989,249.2017,-0.0086319999999999,-0.01189873,0.0,0 STARLINK-4698,1 53713U 22107P   22256.91667824 -.01189873  00000-0 -86320-2 0  9991,2 53713  53.2177 229.4648 0001033 110.9989 249.2017 15.75530379  1310,6721.259,91.398,343.819,342.43,0.0
53713.0,STARLINK-4698,PAYLOAD,2022-09-14 14:00:01,15.73735827,0.0001256,53.2166,226.1601,72.5658,108.9552,-0.0049989,-0.00664531,0.0,0 STARLINK-4698,1 53713U 22107P   22257.58334491 -.00664531  00000-0 -49989-2 0  9994,2 53713  53.2166 226.1601 0001256  72.5658 108.9552 15.73735827  1615,6726.368,91.502,349.07800000000015,347.38800000000015,0.0
53713.0,STARLINK-4698,PAYLOAD,2022-09-14 20:00:01,15.73217271,0.0001079,53.2172,224.9208,82.9664,75.5945,-0.00017056,-0.00024504,0.0,0 STARLINK-4698,1 53713U 22107P   22257.83334491 -.00024504  00000-0 -17056-3 0  9993,2 53713  53.2172 224.9208 0001079  82.9664  75.5945 15.73217271  1653,6727.846,91.532,350.43699999999984,348.985,0.0
53713.0,STARLINK-4698,PAYLOAD,2022-09-14 22:00:00,15.73202699,0.0001176,53.2174,224.5085,86.3287,184.4712,2.5037e-05,2.896e-05,0.0,0 STARLINK-4698,1 53713U 22107P   22257.91667824  .00002896  00000-0  25037-4 0  9998,2 53713  53.2174 224.5085 0001176  86.3287 184.4712 15.73202699  1303,6727.887,91.533,350.5440000000001,348.961,0.0
53713.0,STARLINK-4698,PAYLOAD,2022-09-15 04:00:00,15.73258244,0.0001065,53.2129,223.2735,101.1563,146.3677,-6.542600000000001e-05,-9.814e-05,0.0,0 STARLINK-4698,1 53713U 22107P   22258.16667824 -.00009814  00000-0 -65426-4 0  9991,2 53713  53.2129 223.2735 0001065 101.1563 146.3677 15.73258244  1709,6727.729,91.53,350.311,348.87800000000016,0.0
53713.0,STARLINK-4698,PAYLOAD,2022-09-15 14:00:01,15.73237915,0.0001032,53.2139,221.2104,104.2083,344.5513,0.00014267,0.00019482,0.0,0 STARLINK-4698,1 53713U 22107P   22258.58334491  .00019482  00000-0  14267-3 0  9994,2 53713  53.2139 221.2104 0001032 104.2083 344.5513 15.73237915  1302,6727.7869999999975,91.531,350.346,348.958,0.0
53713.0,STARLINK-4698,PAYLOAD,2022-09-15 22:00:00,15.73275591,0.0001105,53.2146,219.5601,113.0598,64.6747,-0.0010124,-0.00140802,0.0,0 STARLINK-4698,1 53713U 22107P   22258.91667824 -.00140802  00000-0 -10124-2 0  9990,2 53713  53.2146 219.5601 0001105 113.0598  64.6747 15.73275591  1303,6727.68,91.529,350.288,348.801,0.0
53713.0,STARLINK-4698,PAYLOAD,2022-09-16 06:00:00,15.73126366,0.0001112,53.2143,217.9127,96.9892,169.7155,0.0004133,0.00057599,0.0,0 STARLINK-4698,1 53713U 22107P   22259.25001157  .00057599  00000-0  41330-3 0  9991,2 53713  53.2143 217.9127 0001112  96.9892 169.7155 15.73126366  1876,6728.105,91.537,350.718,349.222,0.0
53713.0,STARLINK-4698,PAYLOAD,2022-09-16 14:00:01,15.73158406,0.0001256,53.2138,216.2618,108.2293,247.3311,-0.00041057,-0.00057744,0.0,0 STARLINK-4698,1 53713U 22107P   22259.58334491 -.00057744  00000-0 -41057-3 0  9997,2 53713  53.2138 216.2618 0001256 108.2293 247.3311 15.73158406  1303,6728.014,91.536,350.724,349.034,0.0
53713.0,STARLINK-4698,PAYLOAD,2022-09-16 16:00:00,15.73110119,0.0001256,53.2139,215.849,111.9379,355.852,0.00025244,0.00034819,0.0,0 STARLINK-4698,1 53713U 22107P   22259.66667824  .00034819  00000-0  25244-3 0  9991,2 53713  53.2139 215.8490 0001256 111.9379 355.8520 15.73110119  1949,6728.151,91.538,350.861,349.171,0.0
53713.0,STARLINK-4698,PAYLOAD,2022-09-16 22:00:00,15.731374300000002,0.000144,53.214,214.6119,112.5964,331.8153,0.00039938,0.00055652,0.0,0 STARLINK-4698,1 53713U 22107P   22259.91667824  .00055652  00000-0  39938-3 0  9992,2 53713  53.2140 214.6119 0001440 112.5964 331.8153 15.73137430  1309,6728.074000000001,91.537,350.907,348.97,0.0
53713.0,STARLINK-4698,PAYLOAD,2022-09-17 06:00:00,15.73155819,0.0001317,53.2141,212.9645,102.5221,70.7718,0.00062229,0.00087462,0.0,0 STARLINK-4698,1 53713U 22107P   22260.25001157  .00087462  00000-0  62229-3 0  9995,2 53713  53.2141 212.9645 0001317 102.5221  70.7718 15.73155819  2031,6728.021,91.536,350.772,349.0,0.0
53713.0,STARLINK-4698,PAYLOAD,2022-09-17 14:00:01,15.7322429,0.0001276,53.2141,211.3135,110.5317,151.6691,0.00014117,0.00019258,0.0,0 STARLINK-4698,1 53713U 22107P   22260.58334491  .00019258  00000-0  14117-3 0  9992,2 53713  53.2141 211.3135 0001276 110.5317 151.6691 15.73224290  1305,6727.826,91.532,350.5490000000001,348.832,0.0
53713.0,STARLINK-4698,PAYLOAD,2022-09-17 22:00:00,15.73265351,0.0001291,53.2141,209.6635,116.7085,234.4538,-0.0003756999999999,-0.00053162,0.0,0 STARLINK-4698,1 53713U 22107P   22260.91667824 -.00053162  00000-0 -37570-3 0  9990,2 53713  53.2141 209.6635 0001291 116.7085 234.4538 15.73265351  2143,6727.709,91.529,350.44199999999995,348.705,0.0
53713.0,STARLINK-4698,PAYLOAD,2022-09-18 14:00:01,15.73214717,0.0001385,53.2133,206.3644,114.2632,54.9135,0.00021637,0.00029873,0.0,0 STARLINK-4698,1 53713U 22107P   22261.58335648  .00029873  00000-0  21637-3 0  9997,2 53713  53.2133 206.3644 0001385 114.2632  54.9135 15.73214717  2242,6727.853,91.532,350.65,348.786,0.0
53713.0,STARLINK-4698,PAYLOAD,2022-09-18 22:00:00,15.732553400000002,0.0001557,53.2135,204.7147,116.9716,141.0951,-0.00023975,-0.00034212,0.0,0 STARLINK-4698,1 53713U 22107P   22261.91667824 -.00034212  00000-0 -23975-3 0  9990,2 53713  53.2135 204.7147 0001557 116.9716 141.0951 15.73255340  1304,6727.736999999999,91.53,350.65,348.555,0.0
53713.0,STARLINK-4698,PAYLOAD,2022-09-19 06:00:02,15.73239712,0.0001443,53.2136,203.067,108.171,238.9398,-0.00021203,-0.00030321,0.0,0 STARLINK-4698,1 53713U 22107P   22262.25002315 -.00030321  00000-0 -21203-3 0  9995,2 53713  53.2136 203.0670 0001443 108.1710 238.9398 15.73239712  2351,6727.781999999997,91.531,350.61800000000005,348.676,0.0
53713.0,STARLINK-4698,PAYLOAD,2022-09-19 14:00:01,15.73182842,0.0001453999999999,53.2138,201.4156,117.2766,318.7376,-0.00018912,-0.00027057,0.0,0 STARLINK-4698,1 53713U 22107P   22262.58334491 -.00027057  00000-0 -18912-3 0  9999,2 53713  53.2138 201.4156 0001454 117.2766 318.7376 15.73182842  1306,6727.944,91.534,350.787,348.831,0.0
53713.0,STARLINK-4698,PAYLOAD,2022-09-19 22:00:00,15.73198798,0.0001633,53.2138,199.766,117.5312,47.3766,0.00024424,0.00033794,0.0,0 STARLINK-4698,1 53713U 22107P   22262.91667824  .00033794  00000-0  24424-3 0  9993,2 53713  53.2138 199.7660 0001633 117.5312  47.3766 15.73198798  1309,6727.899,91.533,350.862,348.665,0.0
53713.0,STARLINK-4698,PAYLOAD,2022-09-20 14:00:01,15.73152782,0.0001553,53.2132,196.4667,121.0958,221.6909,0.00018876,0.000259,0.0,0 STARLINK-4698,1 53713U 22107P   22263.58334491  .00025900  00000-0  18876-3 0  9992,2 53713  53.2132 196.4667 0001553 121.0958 221.6909 15.73152782  2569,6728.03,91.536,350.94,348.85,0.0
53713.0,STARLINK-4698,PAYLOAD,2022-09-20 22:00:01,15.73209575,0.0001585,53.2135,194.8175,122.55,309.1745,-5.8539e-05,-8.831e-05,0.0,0 STARLINK-4698,1 53713U 22107P   22263.91668981 -.00008831  00000-0 -58539-4 0  9990,2 53713  53.2135 194.8175 0001585 122.5500 309.1745 15.73209575  1306,6727.868,91.533,350.7990000000001,348.667,0.0
53713.0,STARLINK-4698,PAYLOAD,2022-09-21 22:00:00,15.73210281,0.0001506999999999,53.2141,189.8689,123.9026,214.5383,-0.00013833,-0.00019997,0.0,0 STARLINK-4698,1 53713U 22107P   22264.91667824 -.00019997  00000-0 -13833-3 0  9998,2 53713  53.2141 189.8689 0001507 123.9026 214.5383 15.73210281  2763,6727.866,91.533,350.745,348.717,0.0
53713.0,STARLINK-4698,PAYLOAD,2022-09-22 14:00:01,15.73161951,0.0001354,53.2137,186.5693,133.6348,22.6961,0.00048609,0.00068042,0.0,0 STARLINK-4698,1 53713U 22107P   22265.58334491  .00068042  00000-0  48609-3 0  9995,2 53713  53.2137 186.5693 0001354 133.6348  22.6961 15.73161951  2873,6728.004,91.535,350.78,348.958,0.0
53713.0,STARLINK-4698,PAYLOAD,2022-09-22 22:00:00,15.73243983,0.0001469,53.214,184.9205,130.5208,114.714,-0.00067838,-0.00094939,0.0,0 STARLINK-4698,1 53713U 22107P   22265.91667824 -.00094939  00000-0 -67838-3 0  9992,2 53713  53.2140 184.9205 0001469 130.5208 114.7140 15.73243983  1301,6727.77,91.531,350.62300000000016,348.646,0.0
53713.0,STARLINK-4698,PAYLOAD,2022-09-23 06:00:00,15.73153162,0.0001348,53.214,183.2723,121.7913,212.3878,0.00066667,0.00093805,0.0,0 STARLINK-4698,1 53713U 22107P   22266.25001157  .00093805  00000-0  66667-3 0  9999,2 53713  53.2140 183.2723 0001348 121.7913 212.3878 15.73153162  2975,6728.029,91.536,350.801,348.987,0.0
